sat40048
1 40048U 14033AQ  20046.90413714  .00012161  00000-0  22091-3 0  9996
2 40048  97.9834 111.6693 0011214  23.9511 336.2257 15.49667910315022
